<xml>
<item>
<COMMENT>GENERATED VIA SPACETRACK.ORG API</COMMENT>
<ORIGINATOR>18 SPCS</ORIGINATOR>
<NORAD_CAT_ID>55762</NORAD_CAT_ID>
<OBJECT_NAME>STARLINK-5603</OBJECT_NAME>
<OBJECT_TYPE>PAYLOAD</OBJECT_TYPE>
<CLASSIFICATION_TYPE>U</CLASSIFICATION_TYPE>
<INTLDES>23028X</INTLDES>
<EPOCH>2023-10-19 08:36:17</EPOCH>
<EPOCH_MICROSECONDS>44704</EPOCH_MICROSECONDS>
<MEAN_MOTION>14.98377765</MEAN_MOTION>
<ECCENTRICITY>0.0002972</ECCENTRICITY>
<INCLINATION>70</INCLINATION>
<RA_OF_ASC_NODE>264.0178</RA_OF_ASC_NODE>
<ARG_OF_PERICENTER>263.2916</ARG_OF_PERICENTER>
<MEAN_ANOMALY>96.7905</MEAN_ANOMALY>
<EPHEMERIS_TYPE>0</EPHEMERIS_TYPE>
<ELEMENT_SET_NO>999</ELEMENT_SET_NO>
<REV_AT_EPOCH>3586</REV_AT_EPOCH>
<BSTAR>-0.00070734</BSTAR>
<MEAN_MOTION_DOT>-0.00008533</MEAN_MOTION_DOT>
<MEAN_MOTION_DDOT>0</MEAN_MOTION_DDOT>
<FILE>4041395</FILE>
<TLE_LINE0>0 STARLINK-5603</TLE_LINE0>
<TLE_LINE1>1 55762U 23028X 23292.35853061 -.00008533 00000-0 -70734-3 0 9994</TLE_LINE1>
<TLE_LINE2>2 55762 70.0000 264.0178 0002972 263.2916 96.7905 14.98377765 35866</TLE_LINE2>
<OBJECT_ID>2023-028X</OBJECT_ID>
<OBJECT_NUMBER>55762</OBJECT_NUMBER>
<SEMIMAJOR_AXIS>6950.045</SEMIMAJOR_AXIS>
<PERIOD>96.104</PERIOD>
<APOGEE>573.976</APOGEE>
<PERIGEE>569.845</PERIGEE>
<DECAYED>0</DECAYED>
</item>
<item>
<COMMENT>GENERATED VIA SPACETRACK.ORG API</COMMENT>
<ORIGINATOR>18 SPCS</ORIGINATOR>
<NORAD_CAT_ID>55762</NORAD_CAT_ID>
<OBJECT_NAME>STARLINK-5603</OBJECT_NAME>
<OBJECT_TYPE>PAYLOAD</OBJECT_TYPE>
<CLASSIFICATION_TYPE>U</CLASSIFICATION_TYPE>
<INTLDES>23028X</INTLDES>
<EPOCH>2023-10-19 08:36:17</EPOCH>
<EPOCH_MICROSECONDS>44704</EPOCH_MICROSECONDS>
<MEAN_MOTION>14.98377765</MEAN_MOTION>
<ECCENTRICITY>0.0002972</ECCENTRICITY>
<INCLINATION>70</INCLINATION>
<RA_OF_ASC_NODE>264.0178</RA_OF_ASC_NODE>
<ARG_OF_PERICENTER>263.2916</ARG_OF_PERICENTER>
<MEAN_ANOMALY>96.7905</MEAN_ANOMALY>
<EPHEMERIS_TYPE>0</EPHEMERIS_TYPE>
<ELEMENT_SET_NO>999</ELEMENT_SET_NO>
<REV_AT_EPOCH>3586</REV_AT_EPOCH>
<BSTAR>-0.00070734</BSTAR>
<MEAN_MOTION_DOT>-0.00008533</MEAN_MOTION_DOT>
<MEAN_MOTION_DDOT>0</MEAN_MOTION_DDOT>
<FILE>4042363</FILE>
<TLE_LINE0>0 STARLINK-5603</TLE_LINE0>
<TLE_LINE1>1 55762U 23028X 23292.35853061 -.00008533 00000-0 -70734-3 0 9994</TLE_LINE1>
<TLE_LINE2>2 55762 70.0000 264.0178 0002972 263.2916 96.7905 14.98377765 35866</TLE_LINE2>
<OBJECT_ID>2023-028X</OBJECT_ID>
<OBJECT_NUMBER>55762</OBJECT_NUMBER>
<SEMIMAJOR_AXIS>6950.045</SEMIMAJOR_AXIS>
<PERIOD>96.104</PERIOD>
<APOGEE>573.976</APOGEE>
<PERIGEE>569.845</PERIGEE>
<DECAYED>0</DECAYED>
</item>
<item>
<COMMENT>GENERATED VIA SPACETRACK.ORG API</COMMENT>
<ORIGINATOR>18 SPCS</ORIGINATOR>
<NORAD_CAT_ID>56800</NORAD_CAT_ID>
<OBJECT_NAME>STARLINK-6036</OBJECT_NAME>
<OBJECT_TYPE>PAYLOAD</OBJECT_TYPE>
<CLASSIFICATION_TYPE>U</CLASSIFICATION_TYPE>
<INTLDES>23078AK</INTLDES>
<EPOCH>2023-10-19 10:26:25</EPOCH>
<EPOCH_MICROSECONDS>852416</EPOCH_MICROSECONDS>
<MEAN_MOTION>14.98333496</MEAN_MOTION>
<ECCENTRICITY>0.0002846</ECCENTRICITY>
<INCLINATION>70</INCLINATION>
<RA_OF_ASC_NODE>23.7663</RA_OF_ASC_NODE>
<ARG_OF_PERICENTER>255.4672</ARG_OF_PERICENTER>
<MEAN_ANOMALY>104.6171</MEAN_ANOMALY>
<EPHEMERIS_TYPE>0</EPHEMERIS_TYPE>
<ELEMENT_SET_NO>999</ELEMENT_SET_NO>
<REV_AT_EPOCH>2228</REV_AT_EPOCH>
<BSTAR>0.000067234</BSTAR>
<MEAN_MOTION_DOT>0.00000709</MEAN_MOTION_DOT>
<MEAN_MOTION_DDOT>0</MEAN_MOTION_DDOT>
<FILE>4041333</FILE>
<TLE_LINE0>0 STARLINK-6036</TLE_LINE0>
<TLE_LINE1>1 56800U 23078AK 23292.43502144 .00000709 00000-0 67234-4 0 9992</TLE_LINE1>
<TLE_LINE2>2 56800 70.0000 23.7663 0002846 255.4672 104.6171 14.98333496 22280</TLE_LINE2>
<OBJECT_ID>2023-078AK</OBJECT_ID>
<OBJECT_NUMBER>56800</OBJECT_NUMBER>
<SEMIMAJOR_AXIS>6950.182</SEMIMAJOR_AXIS>
<PERIOD>96.107</PERIOD>
<APOGEE>574.025</APOGEE>
<PERIGEE>570.069</PERIGEE>
<DECAYED>0</DECAYED>
</item>
<item>
<COMMENT>GENERATED VIA SPACETRACK.ORG API</COMMENT>
<ORIGINATOR>18 SPCS</ORIGINATOR>
<NORAD_CAT_ID>55961</NORAD_CAT_ID>
<OBJECT_NAME>STARLINK-5933</OBJECT_NAME>
<OBJECT_TYPE>PAYLOAD</OBJECT_TYPE>
<CLASSIFICATION_TYPE>U</CLASSIFICATION_TYPE>
<INTLDES>23037AZ</INTLDES>
<EPOCH>2023-10-19 11:01:09</EPOCH>
<EPOCH_MICROSECONDS>542208</EPOCH_MICROSECONDS>
<MEAN_MOTION>14.98294891</MEAN_MOTION>
<ECCENTRICITY>0.000261</ECCENTRICITY>
<INCLINATION>70</INCLINATION>
<RA_OF_ASC_NODE>303.5676</RA_OF_ASC_NODE>
<ARG_OF_PERICENTER>264.2883</ARG_OF_PERICENTER>
<MEAN_ANOMALY>95.7978</MEAN_ANOMALY>
<EPHEMERIS_TYPE>0</EPHEMERIS_TYPE>
<ELEMENT_SET_NO>999</ELEMENT_SET_NO>
<REV_AT_EPOCH>3416</REV_AT_EPOCH>
<BSTAR>0.00064227</BSTAR>
<MEAN_MOTION_DOT>0.00007572</MEAN_MOTION_DOT>
<MEAN_MOTION_DDOT>0</MEAN_MOTION_DDOT>
<FILE>4041520</FILE>
<TLE_LINE0>0 STARLINK-5933</TLE_LINE0>
<TLE_LINE1>1 55961U 23037AZ 23292.45913822 .00007572 00000-0 64227-3 0 9998</TLE_LINE1>
<TLE_LINE2>2 55961 70.0000 303.5676 0002610 264.2883 95.7978 14.98294891 34161</TLE_LINE2>
<OBJECT_ID>2023-037AZ</OBJECT_ID>
<OBJECT_NUMBER>55961</OBJECT_NUMBER>
<SEMIMAJOR_AXIS>6950.301</SEMIMAJOR_AXIS>
<PERIOD>96.109</PERIOD>
<APOGEE>573.980</APOGEE>
<PERIGEE>570.352</PERIGEE>
<DECAYED>0</DECAYED>
</item>
<item>
<COMMENT>GENERATED VIA SPACETRACK.ORG API</COMMENT>
<ORIGINATOR>18 SPCS</ORIGINATOR>
<NORAD_CAT_ID>55961</NORAD_CAT_ID>
<OBJECT_NAME>STARLINK-5933</OBJECT_NAME>
<OBJECT_TYPE>PAYLOAD</OBJECT_TYPE>
<CLASSIFICATION_TYPE>U</CLASSIFICATION_TYPE>
<INTLDES>23037AZ</INTLDES>
<EPOCH>2023-10-19 11:01:09</EPOCH>
<EPOCH_MICROSECONDS>542208</EPOCH_MICROSECONDS>
<MEAN_MOTION>14.98294891</MEAN_MOTION>
<ECCENTRICITY>0.000261</ECCENTRICITY>
<INCLINATION>70</INCLINATION>
<RA_OF_ASC_NODE>303.5676</RA_OF_ASC_NODE>
<ARG_OF_PERICENTER>264.2883</ARG_OF_PERICENTER>
<MEAN_ANOMALY>95.7978</MEAN_ANOMALY>
<EPHEMERIS_TYPE>0</EPHEMERIS_TYPE>
<ELEMENT_SET_NO>999</ELEMENT_SET_NO>
<REV_AT_EPOCH>3382</REV_AT_EPOCH>
<BSTAR>0.00064227</BSTAR>
<MEAN_MOTION_DOT>0.00007572</MEAN_MOTION_DOT>
<MEAN_MOTION_DDOT>0</MEAN_MOTION_DDOT>
<FILE>4042363</FILE>
<TLE_LINE0>0 STARLINK-5933</TLE_LINE0>
<TLE_LINE1>1 55961U 23037AZ 23292.45913822 .00007572 00000-0 64227-3 0 9998</TLE_LINE1>
<TLE_LINE2>2 55961 70.0000 303.5676 0002610 264.2883 95.7978 14.98294891 33823</TLE_LINE2>
<OBJECT_ID>2023-037AZ</OBJECT_ID>
<OBJECT_NUMBER>55961</OBJECT_NUMBER>
<SEMIMAJOR_AXIS>6950.301</SEMIMAJOR_AXIS>
<PERIOD>96.109</PERIOD>
<APOGEE>573.980</APOGEE>
<PERIGEE>570.352</PERIGEE>
<DECAYED>0</DECAYED>
</item>
<item>
<COMMENT>GENERATED VIA SPACETRACK.ORG API</COMMENT>
<ORIGINATOR>18 SPCS</ORIGINATOR>
<NORAD_CAT_ID>55920</NORAD_CAT_ID>
<OBJECT_NAME>STARLINK-5862</OBJECT_NAME>
<OBJECT_TYPE>PAYLOAD</OBJECT_TYPE>
<CLASSIFICATION_TYPE>U</CLASSIFICATION_TYPE>
<INTLDES>23037G</INTLDES>
<EPOCH>2023-10-19 11:01:30</EPOCH>
<EPOCH_MICROSECONDS>70848</EPOCH_MICROSECONDS>
<MEAN_MOTION>14.98340337</MEAN_MOTION>
<ECCENTRICITY>0.0002716</ECCENTRICITY>
<INCLINATION>70</INCLINATION>
<RA_OF_ASC_NODE>323.8561</RA_OF_ASC_NODE>
<ARG_OF_PERICENTER>267.6326</ARG_OF_PERICENTER>
<MEAN_ANOMALY>92.4522</MEAN_ANOMALY>
<EPHEMERIS_TYPE>0</EPHEMERIS_TYPE>
<ELEMENT_SET_NO>999</ELEMENT_SET_NO>
<REV_AT_EPOCH>3332</REV_AT_EPOCH>
<BSTAR>-0.000089461</BSTAR>
<MEAN_MOTION_DOT>-0.0000116</MEAN_MOTION_DOT>
<MEAN_MOTION_DDOT>0</MEAN_MOTION_DDOT>
<FILE>4042363</FILE>
<TLE_LINE0>0 STARLINK-5862</TLE_LINE0>
<TLE_LINE1>1 55920U 23037G 23292.45937582 -.00001160 00000-0 -89461-4 0 9999</TLE_LINE1>
<TLE_LINE2>2 55920 70.0000 323.8561 0002716 267.6326 92.4522 14.98340337 33323</TLE_LINE2>
<OBJECT_ID>2023-037G</OBJECT_ID>
<OBJECT_NUMBER>55920</OBJECT_NUMBER>
<SEMIMAJOR_AXIS>6950.161</SEMIMAJOR_AXIS>
<PERIOD>96.106</PERIOD>
<APOGEE>573.914</APOGEE>
<PERIGEE>570.138</PERIGEE>
<DECAYED>0</DECAYED>
</item>
<item>
<COMMENT>GENERATED VIA SPACETRACK.ORG API</COMMENT>
<ORIGINATOR>18 SPCS</ORIGINATOR>
<NORAD_CAT_ID>55944</NORAD_CAT_ID>
<OBJECT_NAME>STARLINK-5926</OBJECT_NAME>
<OBJECT_TYPE>PAYLOAD</OBJECT_TYPE>
<CLASSIFICATION_TYPE>U</CLASSIFICATION_TYPE>
<INTLDES>23037AG</INTLDES>
<EPOCH>2023-10-19 11:19:29</EPOCH>
<EPOCH_MICROSECONDS>647488</EPOCH_MICROSECONDS>
<MEAN_MOTION>14.9833901</MEAN_MOTION>
<ECCENTRICITY>0.0002663</ECCENTRICITY>
<INCLINATION>70</INCLINATION>
<RA_OF_ASC_NODE>323.4952</RA_OF_ASC_NODE>
<ARG_OF_PERICENTER>264.4963</ARG_OF_PERICENTER>
<MEAN_ANOMALY>95.5892</MEAN_ANOMALY>
<EPHEMERIS_TYPE>0</EPHEMERIS_TYPE>
<ELEMENT_SET_NO>999</ELEMENT_SET_NO>
<REV_AT_EPOCH>3333</REV_AT_EPOCH>
<BSTAR>-0.000052463</BSTAR>
<MEAN_MOTION_DOT>-0.00000719</MEAN_MOTION_DOT>
<MEAN_MOTION_DDOT>0</MEAN_MOTION_DDOT>
<FILE>4042363</FILE>
<TLE_LINE0>0 STARLINK-5926</TLE_LINE0>
<TLE_LINE1>1 55944U 23037AG 23292.47187092 -.00000719 00000-0 -52463-4 0 9991</TLE_LINE1>
<TLE_LINE2>2 55944 70.0000 323.4952 0002663 264.4963 95.5892 14.98339010 33333</TLE_LINE2>
<OBJECT_ID>2023-037AG</OBJECT_ID>
<OBJECT_NUMBER>55944</OBJECT_NUMBER>
<SEMIMAJOR_AXIS>6950.165</SEMIMAJOR_AXIS>
<PERIOD>96.106</PERIOD>
<APOGEE>573.881</APOGEE>
<PERIGEE>570.179</PERIGEE>
<DECAYED>0</DECAYED>
</item>

</xml>
